     2.100          NAVIGATION                              RINEX VERSION / TYPE
fic2rin                                 11/19/2013 00:26:45 PGM / RUN BY / DATE
                                                            END OF HEADER
32 13 11 19  0  0  0.0 -.527772121131D-03  .466116034659D-11  .000000000000D+00
     .880000000000D+02  .459375000000D+01  .484484466437D-08  .471048501884D+00
     .236555933952D-06  .115907472791D-01  .977143645287D-05  .515355325127D+04
     .172800000000D+06  .221654772758D-06  .281739095564D+01 -.335276126862D-07
     .948788348637D+00  .187531250000D+03 -.238894665710D+00 -.813533886952D-08
    -.445018536808D-09  .100000000000D+01  .176700000000D+04  .000000000000D+00
     .240000000000D+01  .000000000000D+00 -.325962901115D-08  .880000000000D+02
     .165606000000D+06  .400000000000D+01
15 13 11 18 23 59 44.0 -.147841405123D-03 -.193267624127D-11  .000000000000D+00
     .200000000000D+01  .131906250000D+03  .489484674716D-08  .207028770560D+01
     .694952905178D-05  .584633101244D-02  .914558768272D-05  .515361046410D+04
     .172784000000D+06 -.931322574615D-07 -.253744742305D+01  .135973095894D-06
     .939121842400D+00  .192093750000D+03  .183880965712D+00 -.822105672573D-08
     .992898501065D-10  .100000000000D+01  .176700000000D+04  .000000000000D+00
     .240000000000D+01  .000000000000D+00 -.102445483208D-07  .200000000000D+01
     .167346000000D+06  .400000000000D+01
 1 13 11 18 23 59 44.0  .953571870923D-04  .318323145621D-11  .000000000000D+00
     .100000000000D+02  .237500000000D+01  .499985112101D-08  .473256596785D+00
     .104308128357D-06  .252969295252D-02  .463612377644D-05  .515367708015D+04
     .172784000000D+06  .298023223877D-07  .168755493618D+01  .167638063431D-07
     .959976295529D+00  .290906250000D+03  .431828641019D+00 -.824284334751D-08
     .610739725475D-10  .100000000000D+01  .176700000000D+04  .000000000000D+00
     .240000000000D+01  .000000000000D+00  .791624188423D-08  .100000000000D+02
     .168546000000D+06  .400000000000D+01
 7 13 11 18 23 59 28.0  .282223802060D-03  .420641299570D-11  .000000000000D+00
     .110000000000D+02 -.718750000000D+00  .456340436982D-08 -.758614997760D-01
    -.135973095894D-06  .700635008980D-02  .627711415291D-06  .515365859604D+04
     .172768000000D+06  .763684511185D-07 -.143499742021D+01  .372529029846D-08
     .974343975326D+00  .371812500000D+03 -.283985054297D+01 -.846963850873D-08
    -.108575951196D-09  .100000000000D+01  .176700000000D+04  .000000000000D+00
     .240000000000D+01  .000000000000D+00 -.107102096081D-07  .110000000000D+02
     .171456000000D+06  .400000000000D+01
 5 13 11 18 23 59 44.0 -.397290568799D-03  .795807864051D-12  .000000000000D+00
     .200000000000D+01 -.159375000000D+01  .481591488790D-08 -.274065548520D+01
    -.165775418282D-06  .344761868473D-02  .102370977402D-04  .515374610329D+04
     .172784000000D+06 -.391155481339D-07  .272858456484D+01 -.931322574615D-07
     .948207183950D+00  .177750000000D+03  .334552876179D+00 -.795854579109D-08
    -.554308803472D-09  .100000000000D+01  .176700000000D+04  .000000000000D+00
     .240000000000D+01  .000000000000D+00 -.102445483208D-07  .200000000000D+01
     .171936000000D+06  .400000000000D+01
